H1 CPF 01  gfz 2022 05 06 12  6262 tandemx   
H2 1003001  6202 36605    2022 05 06 12 59 42 2022 05 11 00 00 42   120 1 1  0 0 0
H9
10 0 59708  85662.000000  0    -796243.002   5967976.683   3338446.319
10 0 59708  85782.000000  0    -657716.807   6373517.703   2522084.383
10 0 59708  85902.000000  0    -501592.077   6665033.069   1661306.730
10 0 59708  86022.000000  0    -332642.820   6837167.986    771273.642
10 0 59708  86142.000000  0    -155942.135   6886763.330   -132339.128
10 0 59708  86262.000000  0      23267.562   6812917.011  -1033624.807
10 0 59708  86382.000000  0     199708.268   6616998.398  -1916736.054
10 0 59709    102.000000  0     368198.831   6302615.209  -2766171.196
10 0 59709    222.000000  0     523784.163   5875537.910  -3567050.770
10 0 59709    342.000000  0     661858.602   5343582.769  -4305380.360
10 0 59709    462.000000  0     778280.094   4716456.208  -4968293.770
10 0 59709    582.000000  0     869472.559   4005565.513  -5544271.903
10 0 59709    702.000000  0     932513.972   3223801.257  -6023334.578
10 0 59709    822.000000  0     965208.195   2385295.922  -6397203.255
10 0 59709    942.000000  0     966140.163   1505164.637  -6659431.762
10 0 59709   1062.000000  0     934712.950    599233.997  -6805506.833
10 0 59709   1182.000000  0     871166.736   -316238.876  -6832917.870
10 0 59709   1302.000000  0     776579.266  -1224852.617  -6741194.739
10 0 59709   1422.000000  0     652847.598  -2110347.637  -6531913.194
10 0 59709   1542.000000  0     502652.403  -2956888.324  -6208671.566
10 0 59709   1662.000000  0     329403.836  -3749342.352  -5777037.856
10 0 59709   1782.000000  0     137170.273  -4473549.862  -5244462.381
10 0 59709   1902.000000  0     -69408.249  -5116577.806  -4620160.577
10 0 59709   2022.000000  0    -285222.003  -5666957.001  -3914965.256
10 0 59709   2142.000000  0    -504806.582  -6114896.272  -3141148.206
10 0 59709   2262.000000  0    -722468.682  -6452468.016  -2312213.809
10 0 59709   2382.000000  0    -932420.192  -6673761.973  -1442667.406
10 0 59709   2502.000000  0   -1128917.186  -6775001.582   -547760.405
10 0 59709   2622.000000  0   -1306400.432  -6754618.522    356781.621
10 0 59709   2742.000000  0   -1459634.104  -6613283.687   1255041.908
10 0 59709   2862.000000  0   -1583839.301  -6353893.548   2131201.187
10 0 59709   2982.000000  0   -1674818.205  -5981511.079   2969825.783
10 0 59709   3102.000000  0   -1729065.768  -5503262.496   3756147.825
10 0 59709   3222.000000  0   -1743865.375  -4928193.127   4476331.115
10 0 59709   3342.000000  0   -1717366.972  -4267087.454   5117716.554
10 0 59709   3462.000000  0   -1648646.907  -3532258.262   5669045.285
10 0 59709   3582.000000  0   -1537746.615  -2737306.971   6120654.237
10 0 59709   3702.000000  0   -1385689.128  -1896864.120   6464639.115
10 0 59709   3822.000000  0   -1194474.674  -1026316.406   6694986.538
10 0 59709   3942.000000  0    -967056.226   -141521.998   6807673.789
10 0 59709   4062.000000  0    -707294.714    741478.764   6800733.968
10 0 59709   4182.000000  0    -419893.366   1606753.539   6674288.897
10 0 59709   4302.000000  0    -110312.393   2438765.282   6430547.149
10 0 59709   4422.000000  0     215334.223   3222651.128   6073767.535
10 0 59709   4542.000000  0     550397.623   3944489.100   5610189.401
10 0 59709   4662.000000  0     887827.256   4591549.111   5047929.129
10 0 59709   4782.000000  0    1220316.686   5152523.358   4396843.897
10 0 59709   4902.000000  0    1540458.137   5617731.282   3668363.101
10 0 59709   5022.000000  0    1840903.485   5979295.850   2875293.399
10 0 59709   5142.000000  0    2114530.332   6231288.212   2031592.127
10 0 59709   5262.000000  0    2354603.749   6369832.629   1152117.167
10 0 59709   5382.000000  0    2554933.795   6393169.757    252358.021
10 0 59709   5502.000000  0    2710022.438   6301676.858   -651844.416
10 0 59709   5622.000000  0    2815197.796   6097846.319  -1544584.778
10 0 59709   5742.000000  0    2866732.016   5786221.493  -2410180.748
10 0 59709   5862.000000  0    2861939.603   5373292.451  -3233455.185
10 0 59709   5982.000000  0    2799253.667   4867353.091  -4000006.957
10 0 59709   6102.000000  0    2678277.819   4278324.501  -4696462.851
10 0 59709   6222.000000  0    2499813.363   3617550.852  -5310706.875
10 0 59709   6342.000000  0    2265862.461   2897573.066  -5832083.547
10 0 59709   6462.000000  0    1979607.339   2131884.808  -6251573.402
10 0 59709   6582.000000  0    1645365.677   1334676.370  -6561937.114
10 0 59709   6702.000000  0    1268525.195    520572.712  -6757828.731
10 0 59709   6822.000000  0     855456.776   -295631.058  -6835879.113
10 0 59709   6942.000000  0     413407.019  -1099233.688  -6794747.158
10 0 59709   7062.000000  0     -49626.264  -1875885.661  -6635138.598
10 0 59709   7182.000000  0    -525034.246  -2611837.706  -6359795.807
10 0 59709   7302.000000  0   -1003753.148  -3294180.331  -5973457.309
10 0 59709   7422.000000  0   -1476432.250  -3911068.205  -5482783.935
10 0 59709   7542.000000  0   -1933611.981  -4451926.592  -4896255.672
10 0 59709   7662.000000  0   -2365910.299  -4907638.229  -4224037.219
10 0 59709   7782.000000  0   -2764213.712  -5270704.847  -3477811.896
10 0 59709   7902.000000  0   -3119868.193  -5535379.540  -2670586.773
10 0 59709   8022.000000  0   -3424866.376  -5697767.756  -1816471.578
10 0 59709   8142.000000  0   -3672027.087  -5755893.779   -930433.624
10 0 59709   8262.000000  0   -3855161.588  -5709729.533    -28032.424
10 0 59709   8382.000000  0   -3969221.690  -5561184.075    874859.765
10 0 59709   8502.000000  0   -4010426.360  -5314053.951   1762345.576
10 0 59709   8622.000000  0   -3976362.816  -4973934.430   2618792.106
10 0 59709   8742.000000  0   -3866059.404  -4548094.495   3429114.464
10 0 59709   8862.000000  0   -3680029.083  -4045319.801   4179048.173
10 0 59709   8982.000000  0   -3420281.975  -3475726.541   4855404.924
10 0 59709   9102.000000  0   -3090307.123  -2850551.223   5446305.116
10 0 59709   9222.000000  0   -2695024.609  -2181923.375   5941384.072
10 0 59709   9342.000000  0   -2240709.212  -1482626.228   6331969.886
10 0 59709   9462.000000  0   -1734887.488   -765848.649   6611231.659
10 0 59709   9582.000000  0   -1186208.320    -44932.670   6774292.428
10 0 59709   9702.000000  0    -604293.579    666874.101   6818306.710
10 0 59709   9822.000000  0        430.208   1356660.876   6742507.838
10 0 59709   9942.000000  0     616918.480   2012087.715   6548220.837
10 0 59709  10062.000000  0    1233710.144   2621606.393   6238840.185
10 0 59709  10182.000000  0    1839139.751   3174663.826   5819773.875
10 0 59709  10302.000000  0    2421557.581   3661887.285   5298355.136
10 0 59709  10422.000000  0    2969555.365   4075248.052   4683720.543
10 0 59709  10542.000000  0    3472192.353   4408198.377   3986653.932
10 0 59709  10662.000000  0    3919215.308   4655779.835   3219402.144
10 0 59709  10782.000000  0    4301273.739   4814703.842   2395462.453
10 0 59709  10902.000000  0    4610118.464   4883395.778   1529340.036
10 0 59709  11022.000000  0    4838779.561   4862005.745    636289.645
10 0 59709  11142.000000  0    4981724.242   4752384.980   -267961.139
10 0 59709  11262.000000  0    5034982.878   4558025.078  -1167498.967
10 0 59709  11382.000000  0    4996243.989   4283964.286  -2046512.472
10 0 59709  11502.000000  0    4864916.882   3936664.007  -2889577.044
10 0 59709  11622.000000  0    4642159.042   3523858.020  -3681930.476
10 0 59709  11742.000000  0    4330867.622   3054379.303  -4409733.310
10 0 59709  11862.000000  0    3935636.750   2537968.359  -5060308.546
10 0 59709  11982.000000  0    3462682.993   1985067.945  -5622356.571
10 0 59709  12102.000000  0    2919740.209   1406610.093  -6086142.850
10 0 59709  12222.000000  0    2315926.254    813799.791  -6443655.511
10 0 59709  12342.000000  0    1661586.013    217899.923  -6688731.358
10 0 59709  12462.000000  0     968114.712   -369978.494  -6817151.926
10 0 59709  12582.000000  0     247760.703   -939079.489  -6826709.417
10 0 59709  12702.000000  0    -486586.994  -1479193.827  -6717238.490
10 0 59709  12822.000000  0   -1221622.835  -1980836.618  -6490619.022
10 0 59709  12942.000000  0   -1943860.316  -2435410.747  -6150748.262
10 0 59709  13062.000000  0   -2639873.809  -2835352.530  -5703480.412
10 0 59709  13182.000000  0   -3296543.753  -3174257.714  -5156536.844
10 0 59709  13302.000000  0   -3901303.941  -3446987.482  -4519385.197
10 0 59709  13422.000000  0   -4442384.331  -3649750.178  -3803085.871
10 0 59709  13542.000000  0   -4909044.570  -3780157.375  -3020109.699
10 0 59709  13662.000000  0   -5291793.967  -3837253.180  -2184127.434
10 0 59709  13782.000000  0   -5582591.776  -3821514.928  -1309773.630
10 0 59709  13902.000000  0   -5775022.516  -3734824.720   -412389.679
10 0 59709  14022.000000  0   -5864441.881  -3580412.270    492249.584
10 0 59709  14142.000000  0   -5848089.279  -3362770.347   1388220.613
10 0 59709  14262.000000  0   -5725161.719  -3087543.399   2259741.733
10 0 59709  14382.000000  0   -5496847.057  -2761392.130   3091459.993
10 0 59709  14502.000000  0   -5166317.785  -2391839.741   3868729.010
10 0 59709  14622.000000  0   -4738684.063  -1987101.476   4577873.425
10 0 59709  14742.000000  0   -4220907.414  -1555902.621   5206431.039
10 0 59709  14862.000000  0   -3621680.172  -1107291.559   5743369.912
10 0 59709  14982.000000  0   -2951272.851   -650450.444   6179279.774
10 0 59709  15102.000000  0   -2221350.468   -194506.613   6506533.064
10 0 59709  15222.000000  0   -1444762.793    251649.448   6719411.303
10 0 59709  15342.000000  0    -635315.138    679535.399   6814198.467
10 0 59709  15462.000000  0     192477.680   1081237.114   6789241.758
10 0 59709  15582.000000  0    1023650.993   1449554.498   6644978.571
10 0 59709  15702.000000  0    1843060.138   1778130.905   6383929.212
99
